[{"OBJECT_NAME":"TIANMU-1 22","OBJECT_ID":"2023-208D","EPOCH":"2026-03-09T22:39:05.738688","MEAN_MOTION":15.29457749,"ECCENTRICITY":0.00031332,"INCLINATION":97.4379,"RA_OF_ASC_NODE":184.9419,"ARG_OF_PERICENTER":351.9312,"MEAN_ANOMALY":8.1877,"EPHEMERIS_TYPE":0,"CLASSIFICATION_TYPE":"U","NORAD_CAT_ID":58663,"ELEMENT_SET_NO":999,"REV_AT_EPOCH":12215,"BSTAR":0.00038239675,"MEAN_MOTION_DOT":0.00010851,"MEAN_MOTION_DDOT":0},{"OBJECT_NAME":"STARLINK-31970","OBJECT_ID":"2024-106G","EPOCH":"2026-03-09T02:39:02.417760","MEAN_MOTION":15.27580902,"ECCENTRICITY":0.00011668,"INCLINATION":43.0032,"RA_OF_ASC_NODE":335.8462,"ARG_OF_PERICENTER":262.4083,"MEAN_ANOMALY":97.6636,"EPHEMERIS_TYPE":0,"CLASSIFICATION_TYPE":"U","NORAD_CAT_ID":59928,"ELEMENT_SET_NO":999,"REV_AT_EPOCH":10048,"BSTAR":-6.2900407e-5,"MEAN_MOTION_DOT":-1.993e-5,"MEAN_MOTION_DDOT":0}]
